0 SL-8 R/B
1 20775U 90078B   13282.48157017  .00015662  00000-0  87202-3 0  2450
2 20775 082.9355 060.0265 0662235 127.2862 282.2861 14.13044855157159
0 SL-8 R/B
1 20775U 90078B   13283.54464649  .00015621  00000-0  87010-3 0  2463
2 20775 082.9352 059.1794 0662071 124.1075 290.1505 14.13066839157308
0 SL-8 R/B
1 20775U 90078B   13285.45940303  .00011808  00000-0  65673-3 0  2476
2 20775 082.9350 057.6530 0661881 118.3787 310.7578 14.13116952157570
0 SL-8 R/B
1 20775U 90078B   13286.82127668  .00011457  00000-0  63701-3 0  2480
2 20775 082.9355 056.5677 0661758 114.3016 038.9740 14.13145507157768
0 SL-8 R/B
1 20775U 90078B   13288.43278273  .00013751  00000-0  76438-3 0  2499
2 20775 082.9362 055.2833 0661670 109.4806 317.3293 14.13187345157999
0 SL-8 R/B
1 20775U 90078B   13289.85876358  .00012751  00000-0  70791-3 0  2501
2 20775 082.9370 054.1471 0661643 105.2122 012.0415 14.13217774158197
0 SL-8 R/B
1 20775U 90078B   13291.47385175  .00010541  00000-0  58415-3 0  2519
2 20775 082.9377 052.8604 0661607 100.3717 309.0325 14.13249480158427
0 SL-8 R/B
1 20775U 90078B   13292.83189632  .00009415  00000-0  52092-3 0  2524
2 20775 082.9380 051.7780 0661605 096.3019 018.4092 14.13273194158613
0 SL-8 R/B
1 20775U 90078B   13293.83258704  .00009640  00000-0  53306-3 0  2532
2 20775 082.9382 050.9806 0661627 093.3059 069.7332 14.13288515158754
0 SL-8 R/B
1 20775U 90078B   13295.29298399  .00009609  00000-0  53079-3 0  2541
2 20775 082.9380 049.8166 0661653 088.9424 300.0404 14.13309189158957
